CCSDS_OMM_VERS = 2.0
CREATION_DATE  = 
ORIGINATOR     = 

OBJECT_NAME    = ATLAS CENTAUR R/B
OBJECT_ID      = 1972-065B
CENTER_NAME    = EARTH
REF_FRAME      = TEME
TIME_SYSTEM    = UTC
MEAN_ELEMENT_THEORY = SGP/SGP4

EPOCH          = 2026-03-30T05:35:53.371968
MEAN_MOTION    = 14.77746395
ECCENTRICITY   = .0033506
INCLINATION    = 35.0008
RA_OF_ASC_NODE = 185.3537
ARG_OF_PERICENTER = 184.2080
MEAN_ANOMALY   = 175.8342

EPHEMERIS_TYPE = 0
CLASSIFICATION_TYPE = U
NORAD_CAT_ID   = 6155
ELEMENT_SET_NO = 999
REV_AT_EPOCH   = 84430
BSTAR          = .23588E-3
MEAN_MOTION_DOT = .1713E-4
MEAN_MOTION_DDOT = 0

CCSDS_OMM_VERS = 2.0
CREATION_DATE  = 
ORIGINATOR     = 

OBJECT_NAME    = SL-8 R/B
OBJECT_ID      = 1975-112B
CENTER_NAME    = EARTH
REF_FRAME      = TEME
TIME_SYSTEM    = UTC
MEAN_ELEMENT_THEORY = SGP/SGP4

EPOCH          = 2026-03-30T10:34:04.917216
MEAN_MOTION    = 14.38215531
ECCENTRICITY   = .0014582
INCLINATION    = 74.0628
RA_OF_ASC_NODE = 340.7436
ARG_OF_PERICENTER = 65.4213
MEAN_ANOMALY   = 294.8459

EPHEMERIS_TYPE = 0
CLASSIFICATION_TYPE = U
NORAD_CAT_ID   = 8459
ELEMENT_SET_NO = 999
REV_AT_EPOCH   = 63485
BSTAR          = .9299E-4
MEAN_MOTION_DOT = .257E-5
MEAN_MOTION_DDOT = 0

CCSDS_OMM_VERS = 2.0
CREATION_DATE  = 
ORIGINATOR     = 

OBJECT_NAME    = SL-3 R/B
OBJECT_ID      = 1977-057B
CENTER_NAME    = EARTH
REF_FRAME      = TEME
TIME_SYSTEM    = UTC
MEAN_ELEMENT_THEORY = SGP/SGP4

EPOCH          = 2026-03-30T11:58:00.065568
MEAN_MOTION    = 15.46093092
ECCENTRICITY   = .0006866
INCLINATION    = 97.5793
RA_OF_ASC_NODE = 262.3484
ARG_OF_PERICENTER = 198.9019
MEAN_ANOMALY   = 161.1976

EPHEMERIS_TYPE = 0
CLASSIFICATION_TYPE = U
NORAD_CAT_ID   = 10114
ELEMENT_SET_NO = 999
REV_AT_EPOCH   = 67154
BSTAR          = .36332E-3
MEAN_MOTION_DOT = .17716E-3
MEAN_MOTION_DDOT = 0

CCSDS_OMM_VERS = 2.0
CREATION_DATE  = 
ORIGINATOR     = 

OBJECT_NAME    = SEASAT 1
OBJECT_ID      = 1978-064A
CENTER_NAME    = EARTH
REF_FRAME      = TEME
TIME_SYSTEM    = UTC
MEAN_ELEMENT_THEORY = SGP/SGP4

EPOCH          = 2026-03-30T10:55:27.246144
MEAN_MOTION    = 14.46177550
ECCENTRICITY   = .0002665
INCLINATION    = 108.0073
RA_OF_ASC_NODE = 169.0702
ARG_OF_PERICENTER = 275.4621
MEAN_ANOMALY   = 84.6220

EPHEMERIS_TYPE = 0
CLASSIFICATION_TYPE = U
NORAD_CAT_ID   = 10967
ELEMENT_SET_NO = 999
REV_AT_EPOCH   = 50951
BSTAR          = .13602E-3
MEAN_MOTION_DOT = .349E-5
MEAN_MOTION_DDOT = 0

CCSDS_OMM_VERS = 2.0
CREATION_DATE  = 
ORIGINATOR     = 

OBJECT_NAME    = SL-14 R/B
OBJECT_ID      = 1979-011B
CENTER_NAME    = EARTH
REF_FRAME      = TEME
TIME_SYSTEM    = UTC
MEAN_ELEMENT_THEORY = SGP/SGP4

EPOCH          = 2026-03-30T10:32:12.538464
MEAN_MOTION    = 14.91935620
ECCENTRICITY   = .0015797
INCLINATION    = 82.5212
RA_OF_ASC_NODE = 76.8752
ARG_OF_PERICENTER = 354.1972
MEAN_ANOMALY   = 5.9062

EPHEMERIS_TYPE = 0
CLASSIFICATION_TYPE = U
NORAD_CAT_ID   = 11267
ELEMENT_SET_NO = 999
REV_AT_EPOCH   = 53187
BSTAR          = .82679E-4
MEAN_MOTION_DOT = .863E-5
MEAN_MOTION_DDOT = 0

CCSDS_OMM_VERS = 2.0
CREATION_DATE  = 
ORIGINATOR     = 

OBJECT_NAME    = SL-8 R/B
OBJECT_ID      = 1979-089B
CENTER_NAME    = EARTH
REF_FRAME      = TEME
TIME_SYSTEM    = UTC
MEAN_ELEMENT_THEORY = SGP/SGP4

EPOCH          = 2026-03-30T08:17:02.510016
MEAN_MOTION    = 14.42364009
ECCENTRICITY   = .0016705
INCLINATION    = 74.0690
RA_OF_ASC_NODE = 52.8043
ARG_OF_PERICENTER = 222.7959
MEAN_ANOMALY   = 137.1898

EPHEMERIS_TYPE = 0
CLASSIFICATION_TYPE = U
NORAD_CAT_ID   = 11574
ELEMENT_SET_NO = 999
REV_AT_EPOCH   = 43908
BSTAR          = .13803E-3
MEAN_MOTION_DOT = .43E-5
MEAN_MOTION_DDOT = 0

CCSDS_OMM_VERS = 2.0
CREATION_DATE  = 
ORIGINATOR     = 

OBJECT_NAME    = SL-14 R/B
OBJECT_ID      = 1980-005B
CENTER_NAME    = EARTH
REF_FRAME      = TEME
TIME_SYSTEM    = UTC
MEAN_ELEMENT_THEORY = SGP/SGP4

EPOCH          = 2026-03-30T12:47:17.586816
MEAN_MOTION    = 14.90954326
ECCENTRICITY   = .0017256
INCLINATION    = 82.5111
RA_OF_ASC_NODE = 287.4599
ARG_OF_PERICENTER = 93.6656
MEAN_ANOMALY   = 266.6536

EPHEMERIS_TYPE = 0
CLASSIFICATION_TYPE = U
NORAD_CAT_ID   = 11672
ELEMENT_SET_NO = 999
REV_AT_EPOCH   = 47959
BSTAR          = .73213E-4
MEAN_MOTION_DOT = .75E-5
MEAN_MOTION_DDOT = 0

CCSDS_OMM_VERS = 2.0
CREATION_DATE  = 
ORIGINATOR     = 

OBJECT_NAME    = SL-8 R/B
OBJECT_ID      = 1981-003B
CENTER_NAME    = EARTH
REF_FRAME      = TEME
TIME_SYSTEM    = UTC
MEAN_ELEMENT_THEORY = SGP/SGP4

EPOCH          = 2026-03-30T12:35:45.660192
MEAN_MOTION    = 15.11908774
ECCENTRICITY   = .0260681
INCLINATION    = 82.9324
RA_OF_ASC_NODE = 270.7433
ARG_OF_PERICENTER = 106.1917
MEAN_ANOMALY   = 256.8170

EPHEMERIS_TYPE = 0
CLASSIFICATION_TYPE = U
NORAD_CAT_ID   = 12139
ELEMENT_SET_NO = 999
REV_AT_EPOCH   = 31782
BSTAR          = .71044E-3
MEAN_MOTION_DOT = .28437E-3
MEAN_MOTION_DDOT = 0

CCSDS_OMM_VERS = 2.0
CREATION_DATE  = 
ORIGINATOR     = 

OBJECT_NAME    = SL-3 R/B
OBJECT_ID      = 1981-046B
CENTER_NAME    = EARTH
REF_FRAME      = TEME
TIME_SYSTEM    = UTC
MEAN_ELEMENT_THEORY = SGP/SGP4

EPOCH          = 2026-03-30T11:33:19.714752
MEAN_MOTION    = 15.42507881
ECCENTRICITY   = .0018185
INCLINATION    = 81.2280
RA_OF_ASC_NODE = 264.7630
ARG_OF_PERICENTER = 308.4767
MEAN_ANOMALY   = 51.4844

EPHEMERIS_TYPE = 0
CLASSIFICATION_TYPE = U
NORAD_CAT_ID   = 12465
ELEMENT_SET_NO = 999
REV_AT_EPOCH   = 44163
BSTAR          = .36801E-3
MEAN_MOTION_DOT = .16088E-3
MEAN_MOTION_DDOT = 0

CCSDS_OMM_VERS = 2.0
CREATION_DATE  = 
ORIGINATOR     = 

OBJECT_NAME    = SL-3 R/B
OBJECT_ID      = 1981-103B
CENTER_NAME    = EARTH
REF_FRAME      = TEME
TIME_SYSTEM    = UTC
MEAN_ELEMENT_THEORY = SGP/SGP4

EPOCH          = 2026-03-30T13:17:50.860896
MEAN_MOTION    = 15.21624932
ECCENTRICITY   = .0012814
INCLINATION    = 81.1612
RA_OF_ASC_NODE = 188.9567
ARG_OF_PERICENTER = 211.7966
MEAN_ANOMALY   = 148.2493

EPHEMERIS_TYPE = 0
CLASSIFICATION_TYPE = U
NORAD_CAT_ID   = 12904
ELEMENT_SET_NO = 999
REV_AT_EPOCH   = 97640
BSTAR          = .36094E-3
MEAN_MOTION_DOT = .8193E-4
MEAN_MOTION_DDOT = 0

CCSDS_OMM_VERS = 2.0
CREATION_DATE  = 
ORIGINATOR     = 

OBJECT_NAME    = SL-3 R/B
OBJECT_ID      = 1982-013B
CENTER_NAME    = EARTH
REF_FRAME      = TEME
TIME_SYSTEM    = UTC
MEAN_ELEMENT_THEORY = SGP/SGP4

EPOCH          = 2026-03-30T11:42:47.651328
MEAN_MOTION    = 15.22201148
ECCENTRICITY   = .0023607
INCLINATION    = 81.1733
RA_OF_ASC_NODE = 136.3914
ARG_OF_PERICENTER = 109.2395
MEAN_ANOMALY   = 251.1394

EPHEMERIS_TYPE = 0
CLASSIFICATION_TYPE = U
NORAD_CAT_ID   = 13068
ELEMENT_SET_NO = 999
REV_AT_EPOCH   = 40751
BSTAR          = .2265E-3
MEAN_MOTION_DOT = .5267E-4
MEAN_MOTION_DDOT = 0

CCSDS_OMM_VERS = 2.0
CREATION_DATE  = 
ORIGINATOR     = 

OBJECT_NAME    = SL-3 R/B
OBJECT_ID      = 1982-039B
CENTER_NAME    = EARTH
REF_FRAME      = TEME
TIME_SYSTEM    = UTC
MEAN_ELEMENT_THEORY = SGP/SGP4

EPOCH          = 2026-03-30T12:41:03.410016
MEAN_MOTION    = 15.10199059
ECCENTRICITY   = .0028499
INCLINATION    = 81.1569
RA_OF_ASC_NODE = 191.9335
ARG_OF_PERICENTER = 255.4090
MEAN_ANOMALY   = 104.3974

EPHEMERIS_TYPE = 0
CLASSIFICATION_TYPE = U
NORAD_CAT_ID   = 13154
ELEMENT_SET_NO = 999
REV_AT_EPOCH   = 38478
BSTAR          = .2334E-3
MEAN_MOTION_DOT = .3871E-4
MEAN_MOTION_DDOT = 0

